IRIDIUM 36 [-]          
1 24967U 97056C   23272.99982879  .00000836  00000+0  27895-3 0  9992
2 24967  86.3921  75.8888 0001898  93.6488 266.4926 14.36414828362295
IRIDIUM 39 [-]          
1 25042U 97069D   23273.49538438  .00000853  00000+0  22697-3 0  9999
2 25042  86.3885 119.1084 0016748 230.0896 129.8836 14.47373511358662
IRIDIUM 38 [-]          
1 25043U 97069E   23273.15994086  .00000623  00000+0  20407-3 0  9990
2 25043  86.3964 136.3400 0003361  46.5260 313.6217 14.36890894356026
IRIDIUM 42 [-]          
1 25077U 97077A   23274.15947934  .00000687  00000+0  23363-3 0  9991
2 25077  86.3978 141.3258 0002248  68.4624 291.6812 14.35208895351513
IRIDIUM 44 [-]          
1 25078U 97077B   23273.69631712  .00000629  00000+0  19744-3 0  9998
2 25078  86.3936 125.1322 0000645  24.6373 335.4856 14.38991642353748
IRIDIUM 45 [-]          
1 25104U 97082A   23273.22878206  .00014047  00000+0  90392-3 0  9991
2 25104  86.3814 344.0034 0183013 103.2510 258.9204 14.95383678357762
IRIDIUM 24 [-]          
1 25105U 97082B   23274.17358796  .00000908  00000+0  27796-3 0  9993
2 25105  86.3959 344.9630 0010945 351.9962   8.1061 14.40750525353435
IRIDIUM 51 [-]          
1 25262U 98018A   23274.19858547  .00017248  00000+0  95794-3 0  9996
2 25262  86.3989 354.1174 0167915  55.5499 306.1471 15.02263137352498
